{
  "type": "FeatureCollection",
  "features": [
    {
      "type": "Feature",
      "properties": {
        "norad_id": 38726,
        "name": "FENGYUN 1C DEB",
        "group": "fengyun-1c-debris",
        "lat": 38.200860979477774,
        "lon": -169.03191354707909,
        "alt_km": 542.7708069546334,
        "timestamp": "2025-12-06T16:45:43.012136+00:00",
        "meta_object_name": "FENGYUN 1C DEB",
        "meta_object_id": "1999-025ETT",
        "meta_epoch": "2025-12-06T08:08:25.579680",
        "meta_mean_motion": 15.01645964,
        "meta_eccentricity": 0.00229624,
        "meta_inclination": 99.1376,
        "meta_ra_of_asc_node": 3.2688,
        "meta_arg_of_pericenter": 145.8993,
        "meta_mean_anomaly": 214.3708,
        "meta_ephemeris_type": 0,
        "meta_classification_type": "U",
        "meta_norad_cat_id": 38726,
        "meta_element_set_no": 999,
        "meta_rev_at_epoch": 69759,
        "meta_bstar": 0.011530425,
        "meta_mean_motion_dot": 0.00153647,
        "meta_mean_motion_ddot": 0,
        "tle_line1": "1 38726U 99025ETT 25340.33918495  .00153647  00000+0  11530-1 0  9993",
        "tle_line2": "2 38726  99.1376   3.2688 0022962 145.8993 214.3708 15.01645964697592"
      },
      "geometry": {
        "type": "Point",
        "coordinates": [
          -169.03191354707909,
          38.200860979477774
        ]
      }
    },
    {
      "type": "Feature",
      "properties": {
        "norad_id": 38728,
        "name": "FENGYUN 1C DEB",
        "group": "fengyun-1c-debris",
        "lat": 30.388556789126362,
        "lon": -38.26197004240793,
        "alt_km": 618.3668547132702,
        "timestamp": "2025-12-06T16:45:43.012147+00:00",
        "meta_object_name": "FENGYUN 1C DEB",
        "meta_object_id": "1999-025ETV",
        "meta_epoch": "2025-12-06T05:29:30.081696",
        "meta_mean_motion": 14.70418681,
        "meta_eccentricity": 0.0075523,
        "meta_inclination": 99.2588,
        "meta_ra_of_asc_node": 326.6948,
        "meta_arg_of_pericenter": 74.331,
        "meta_mean_anomaly": 352.8104,
        "meta_ephemeris_type": 0,
        "meta_classification_type": "U",
        "meta_norad_cat_id": 38728,
        "meta_element_set_no": 999,
        "meta_rev_at_epoch": 65515,
        "meta_bstar": 0.0019460135,
        "meta_mean_motion_dot": 0.00012268,
        "meta_mean_motion_ddot": 0,
        "tle_line1": "1 38728U 99025ETV 25340.22882039  .00012268  00000+0  19460-2 0  9991",
        "tle_line2": "2 38728  99.2588 326.6948 0075523  74.3310 352.8104 14.70418681655154"
      },
      "geometry": {
        "type": "Point",
        "coordinates": [
          -38.26197004240793,
          30.388556789126362
        ]
      }
    },
    {
      "type": "Feature",
      "properties": {
        "norad_id": 38789,
        "name": "FENGYUN 1C DEB",
        "group": "fengyun-1c-debris",
        "lat": 24.853257483376627,
        "lon": 50.646793972585236,
        "alt_km": 790.2313369267868,
        "timestamp": "2025-12-06T16:45:43.012157+00:00",
        "meta_object_name": "FENGYUN 1C DEB",
        "meta_object_id": "1999-025EUD",
        "meta_epoch": "2025-12-03T21:53:36.078432",
        "meta_mean_motion": 14.45729887,
        "meta_eccentricity": 0.02081586,
        "meta_inclination": 98.8566,
        "meta_ra_of_asc_node": 223.5958,
        "meta_arg_of_pericenter": 51.6084,
        "meta_mean_anomaly": 7.9264,
        "meta_ephemeris_type": 0,
        "meta_classification_type": "U",
        "meta_norad_cat_id": 38789,
        "meta_element_set_no": 999,
        "meta_rev_at_epoch": 61718,
        "meta_bstar": 0.0016033778,
        "meta_mean_motion_dot": 7.38e-05,
        "meta_mean_motion_ddot": 0,
        "tle_line1": "1 38789U 99025EUD 25337.91222313  .00007380  00000+0  16034-2 0  9996",
        "tle_line2": "2 38789  98.8566 223.5958 0208158  51.6084   7.9264 14.45729887617187"
      },
      "geometry": {
        "type": "Point",
        "coordinates": [
          50.646793972585236,
          24.853257483376627
        ]
      }
    },
    {
      "type": "Feature",
      "properties": {
        "norad_id": 38795,
        "name": "FENGYUN 1C DEB",
        "group": "fengyun-1c-debris",
        "lat": -77.14449834986162,
        "lon": 46.71630665128602,
        "alt_km": 779.3065742839563,
        "timestamp": "2025-12-06T16:45:43.012167+00:00",
        "meta_object_name": "FENGYUN 1C DEB",
        "meta_object_id": "1999-025EUK",
        "meta_epoch": "2025-12-02T08:24:42.599520",
        "meta_mean_motion": 13.29800561,
        "meta_eccentricity": 0.05040855,
        "meta_inclination": 98.7022,
        "meta_ra_of_asc_node": 0.8783,
        "meta_arg_of_pericenter": 281.6333,
        "meta_mean_anomaly": 72.8653,
        "meta_ephemeris_type": 0,
        "meta_classification_type": "U",
        "meta_norad_cat_id": 38795,
        "meta_element_set_no": 999,
        "meta_rev_at_epoch": 78374,
        "meta_bstar": 0.003965023,
        "meta_mean_motion_dot": 3.692e-05,
        "meta_mean_motion_ddot": 0,
        "tle_line1": "1 38795U 99025EUK 25336.35049305  .00003692  00000+0  39650-2 0  9999",
        "tle_line2": "2 38795  98.7022   0.8783 0504085 281.6333  72.8653 13.29800561783741"
      },
      "geometry": {
        "type": "Point",
        "coordinates": [
          46.71630665128602,
          -77.14449834986162
        ]
      }
    },
    {
      "type": "Feature",
      "properties": {
        "norad_id": 38797,
        "name": "FENGYUN 1C DEB",
        "group": "fengyun-1c-debris",
        "lat": 57.30152410060253,
        "lon": 68.80945515984165,
        "alt_km": 1098.6303003546745,
        "timestamp": "2025-12-06T16:45:43.012177+00:00",
        "meta_object_name": "FENGYUN 1C DEB",
        "meta_object_id": "1999-025EUM",
        "meta_epoch": "2025-12-04T11:14:12.365088",
        "meta_mean_motion": 13.61604449,
        "meta_eccentricity": 0.0245033,
        "meta_inclination": 99.4845,
        "meta_ra_of_asc_node": 231.5475,
        "meta_arg_of_pericenter": 242.5274,
        "meta_mean_anomaly": 115.0763,
        "meta_ephemeris_type": 0,
        "meta_classification_type": "U",
        "meta_norad_cat_id": 38797,
        "meta_element_set_no": 999,
        "meta_rev_at_epoch": 59170,
        "meta_bstar": 0.00058643,
        "meta_mean_motion_dot": 5.04e-06,
        "meta_mean_motion_ddot": 0,
        "tle_line1": "1 38797U 99025EUM 25338.46819867  .00000504  00000+0  58643-3 0  9996",
        "tle_line2": "2 38797  99.4845 231.5475 0245033 242.5274 115.0763 13.61604449591708"
      },
      "geometry": {
        "type": "Point",
        "coordinates": [
          68.80945515984165,
          57.30152410060253
        ]
      }
    },
    {
      "type": "Feature",
      "properties": {
        "norad_id": 38799,
        "name": "FENGYUN 1C DEB",
        "group": "fengyun-1c-debris",
        "lat": 42.12637586149839,
        "lon": 48.491025700767636,
        "alt_km": 628.6832138358377,
        "timestamp": "2025-12-06T16:45:43.012187+00:00",
        "meta_object_name": "FENGYUN 1C DEB",
        "meta_object_id": "1999-025EUP",
        "meta_epoch": "2025-11-26T11:13:58.529856",
        "meta_mean_motion": 14.48569792,
        "meta_eccentricity": 0.01649657,
        "meta_inclination": 98.4067,
        "meta_ra_of_asc_node": 45.9896,
        "meta_arg_of_pericenter": 40.0513,
        "meta_mean_anomaly": 321.2709,
        "meta_ephemeris_type": 0,
        "meta_classification_type": "U",
        "meta_norad_cat_id": 38799,
        "meta_element_set_no": 999,
        "meta_rev_at_epoch": 63803,
        "meta_bstar": 0.00099755644,
        "meta_mean_motion_dot": 4.406e-05,
        "meta_mean_motion_ddot": 0,
        "tle_line1": "1 38799U 99025EUP 25330.46803854  .00004406  00000+0  99756-3 0  9994",
        "tle_line2": "2 38799  98.4067  45.9896 0164965  40.0513 321.2709 14.48569792638036"
      },
      "geometry": {
        "type": "Point",
        "coordinates": [
          48.491025700767636,
          42.12637586149839
        ]
      }
    },
    {
      "type": "Feature",
      "properties": {
        "norad_id": 38801,
        "name": "FENGYUN 1C DEB",
        "group": "fengyun-1c-debris",
        "lat": 57.92753674920892,
        "lon": -134.81727701151848,
        "alt_km": 886.5807716934141,
        "timestamp": "2025-12-06T16:45:43.012198+00:00",
        "meta_object_name": "FENGYUN 1C DEB",
        "meta_object_id": "1999-025EUR",
        "meta_epoch": "2025-12-05T09:56:30.864768",
        "meta_mean_motion": 14.24763514,
        "meta_eccentricity": 0.03475643,
        "meta_inclination": 98.3755,
        "meta_ra_of_asc_node": 30.3568,
        "meta_arg_of_pericenter": 13.5329,
        "meta_mean_anomaly": 0.7956,
        "meta_ephemeris_type": 0,
        "meta_classification_type": "U",
        "meta_norad_cat_id": 38801,
        "meta_element_set_no": 999,
        "meta_rev_at_epoch": 64256,
        "meta_bstar": 0.00093460253,
        "meta_mean_motion_dot": 4.053e-05,
        "meta_mean_motion_ddot": 0,
        "tle_line1": "1 38801U 99025EUR 25339.41424612  .00004053  00000+0  93460-3 0  9997",
        "tle_line2": "2 38801  98.3755  30.3568 0347564  13.5329   0.7956 14.24763514642563"
      },
      "geometry": {
        "type": "Point",
        "coordinates": [
          -134.81727701151848,
          57.92753674920892
        ]
      }
    }
  ]
}